     2.11           N: GPS NAV DATA                         RINEX VERSION / TYPE
teqc  2019Feb25                         20221121 12:24:09UTCPGM / RUN BY / DATE
OSX ker:10.11.6|Core i5|gcc 4.3 -m64|OSX ker:10.10+|=+      COMMENT
    5.5879D-09  1.4901D-08 -5.9605D-08 -1.1921D-07          ION ALPHA
    8.3968D+04  9.8304D+04 -6.5536D+04 -5.2429D+05          ION BETA
    1.862645149231D-09 1.421085471520D-14   147456     1536 DELTA-UTC: A0,A1,T,W
                                                            END OF HEADER
16 09  6 14  0  0  0.0 4.222011193633D-05-3.524291969370D-12 0.000000000000D+00
    3.000000000000D+01-8.125000000000D+01 4.511259340631D-09 3.015427485344D+00
   -4.095956683159D-06 5.350611871108D-03 7.225200533867D-06 5.153566263199D+03
    0.000000000000D+00-6.146728992462D-08-2.842186747069D+00 6.332993507385D-08
    9.688564774469D-01 2.463437500000D+02-3.419223420951D-01-7.963188841636D-09
   -9.928985010651D-11 1.000000000000D+00 1.536000000000D+03 0.000000000000D+00
    2.000000000000D+00 0.000000000000D+00-9.778887033463D-09 3.000000000000D+01
   -7.182000000000D+03 4.000000000000D+00
29 09  6 14  0  0  0.0 2.988846972585D-05 3.751665644813D-12 0.000000000000D+00
    3.200000000000D+01-4.500000000000D+00 4.492329980718D-09-1.797819662451D+00
   -3.743916749954D-07 3.414974897169D-03 1.058913767338D-05 5.153668701172D+03
    0.000000000000D+00-3.911554813385D-08-1.791737371339D+00 1.173466444016D-07
    9.596241316484D-01 1.718750000000D+02-1.315390291354D+00-7.897471818544D-09
    8.678932940965D-11 1.000000000000D+00 1.536000000000D+03 0.000000000000D+00
    2.000000000000D+00 0.000000000000D+00-8.847564458847D-09 3.200000000000D+01
   -7.182000000000D+03 4.000000000000D+00
13 09  6 14  0  0  0.0 2.993536181748D-04 7.958078640513D-13 0.000000000000D+00
    6.000000000000D+01 4.518750000000D+01 3.543004723225D-09 1.480870057576D+00
    2.406537532806D-06 4.155678325333D-03 7.815659046173D-06 5.153699596405D+03
    0.000000000000D+00-5.587935447693D-09 1.382344488174D+00-1.005828380585D-07
    9.946692046735D-01 2.458437500000D+02 1.592566733414D+00-7.668890868658D-09
    2.257236880119D-10 1.000000000000D+00 1.536000000000D+03 0.000000000000D+00
    2.000000000000D+00 0.000000000000D+00-1.117587089539D-08 6.000000000000D+01
   -7.182000000000D+03 4.000000000000D+00
 6 09  6 14  0  0  0.0 1.599537208676D-04 1.330136001343D-11 0.000000000000D+00
    4.600000000000D+01-1.490625000000D+01 5.158786312728D-09 2.973802143893D+00
   -5.215406417847D-07 5.997914704494D-03 9.641051292419D-06 5.153706117630D+03
    0.000000000000D+00 1.844018697739D-07-1.863711024416D+00 5.215406417847D-08
    9.334993508292D-01 1.753437500000D+02-1.345119500438D+00-8.191769791521D-09
    8.071764792832D-11 1.000000000000D+00 1.536000000000D+03 0.000000000000D+00
    2.000000000000D+00 0.000000000000D+00-4.656612873077D-09 4.600000000000D+01
   -7.182000000000D+03 4.000000000000D+00
24 09  6 14  0  0  0.0 1.965891569853D-04 2.955857780762D-12 0.000000000000D+00
    4.400000000000D+01 2.559375000000D+01 4.861631077877D-09 3.123490553553D+00
    1.246109604836D-06 6.669048336335D-03 6.360933184624D-06 5.153669942856D+03
    0.000000000000D+00 4.470348358154D-08-7.194000113381D-01 1.862645149231D-08
    9.505487774406D-01 2.548437500000D+02-6.511350443082D-01-8.101766042504D-09
   -1.332198348551D-10 1.000000000000D+00 1.536000000000D+03 0.000000000000D+00
    2.800000000000D+00 0.000000000000D+00-1.396983861923D-09 4.400000000000D+01
   -7.182000000000D+03 4.000000000000D+00
 3 09  6 14  0  0  0.0 4.063164815307D-04 5.115907697473D-12 0.000000000000D+00
    3.300000000000D+01-1.825000000000D+01 5.456298705314D-09 5.405227564967D-01
   -5.960464477539D-07 1.191548211500D-02 9.354203939438D-06 5.153636030197D+03
    0.000000000000D+00-8.195638656616D-08-1.931464195408D+00 1.173466444016D-07
    9.260589114422D-01 1.808125000000D+02 9.045796372242D-01-8.567856885630D-09
   -3.392998474863D-11 1.000000000000D+00 1.536000000000D+03 0.000000000000D+00
    2.000000000000D+00 0.000000000000D+00-4.190951585770D-09 3.300000000000D+01
   -7.182000000000D+03 4.000000000000D+00
21 09  6 14  0  0  0.0 8.517876267433D-06-2.160049916711D-12 0.000000000000D+00
    6.300000000000D+01 2.290625000000D+01 5.201645240832D-09-1.799063847945D+00
    1.028180122375D-06 1.537604839541D-02 5.846843123436D-06 5.153602920532D+03
    0.000000000000D+00 6.705522537231D-08-7.518215031719D-01-2.477318048477D-07
    9.338938793544D-01 2.515625000000D+02-2.593122841861D+00-8.227842722675D-09
    1.332198348551D-10 1.000000000000D+00 1.536000000000D+03 0.000000000000D+00
    2.000000000000D+00 0.000000000000D+00-1.210719347000D-08 6.300000000000D+01
   -7.182000000000D+03 4.000000000000D+00
 7 09  6 14  0  0  0.0 1.710979267955D-05-6.821210263297D-13 0.000000000000D+00
    5.000000000000D+00 2.031250000000D+00 4.588762568951D-09-8.229190921462D-01
    1.490116119385D-08 2.674798131920D-03 4.176050424576D-06 5.153666656494D+03
    0.000000000000D+00 2.607703208923D-08 2.372186749294D+00 4.284083843231D-08
    9.676604994925D-01 3.002812500000D+02 2.872460566907D+00-8.277487647728D-09
    2.521533603424D-10 1.000000000000D+00 1.536000000000D+03 0.000000000000D+00
    2.000000000000D+00 0.000000000000D+00-1.071020960808D-08 5.000000000000D+00
   -7.182000000000D+03 4.000000000000D+00
10 09  6 14  0  0  0.0-1.748092472553D-05-5.684341886081D-13 0.000000000000D+00
    1.230000000000D+02 4.906250000000D+00 4.489829876579D-09 1.813202646894D+00
    1.899898052216D-07 8.576592546888D-03 8.130446076393D-06 5.153617280960D+03
    0.000000000000D+00-1.341104507446D-07 3.009497780977D-01 2.235174179077D-08
    9.584009668243D-01 2.240625000000D+02 6.260139364732D-01-8.064264480413D-09
   -3.757299363743D-10 1.000000000000D+00 1.536000000000D+03 0.000000000000D+00
    2.800000000000D+00 0.000000000000D+00-2.793967723846D-09 1.230000000000D+02
   -7.182000000000D+03 4.000000000000D+00
25 09  6 14  0  0  0.0 4.611937329173D-04 1.784883352229D-11 0.000000000000D+00
    1.120000000000D+02 1.203125000000D+01 4.413040963727D-09-2.663783520110D+00
    7.543712854385D-07 1.135536190122D-02 4.101544618607D-06 5.153651275635D+03
    0.000000000000D+00 2.235174179077D-08 2.277715511056D+00 2.030283212662D-07
    9.698465174975D-01 3.002812500000D+02-1.207554355806D+00-7.993904406777D-09
    3.085842823454D-10 1.000000000000D+00 1.536000000000D+03 0.000000000000D+00
    2.800000000000D+00 0.000000000000D+00-7.450580596924D-09 1.120000000000D+02
   -7.182000000000D+03 4.000000000000D+00
19 09  6 14  0  0  0.0 2.258643507957D-05-1.250555214938D-12 0.000000000000D+00
    7.000000000000D+01-9.875000000000D+00 4.685552314918D-09 1.289563602037D+00
   -3.278255462646D-07 5.663885502145D-03 8.983537554741D-06 5.153615570068D+03
    0.000000000000D+00 8.754432201386D-08-1.743920371021D+00 1.490116119385D-08
    9.570878281497D-01 1.979687500000D+02-3.516335112215D-01-8.006762085208D-09
   -4.643050544549D-12 1.000000000000D+00 1.536000000000D+03 0.000000000000D+00
    2.000000000000D+00 0.000000000000D+00-1.443549990654D-08 7.000000000000D+01
   -5.268000000000D+03 4.000000000000D+00
 8 09  6 14  0  0  0.0-2.075615338981D-04-1.591615728103D-12 0.000000000000D+00
    9.500000000000D+01-4.250000000000D+00 4.174459597284D-09-1.554047456703D+00
   -5.140900611877D-07 1.062780956272D-02 4.328787326813D-06 5.153642166138D+03
    0.000000000000D+00 4.284083843231D-08 2.432903227271D+00-1.359730958939D-07
    9.888974632744D-01 3.132187500000D+02 2.992464519610D+00-8.051763959717D-09
    3.175132257003D-10 1.000000000000D+00 1.536000000000D+03 0.000000000000D+00
    2.800000000000D+00 0.000000000000D+00-3.725290298462D-09 9.500000000000D+01
   -3.828000000000D+03 4.000000000000D+00
18 09  6 14  0  0  0.0-4.845717921853D-05 3.183231456205D-12 0.000000000000D+00
    5.300000000000D+01 1.250000000000D-01 4.682337895311D-09-3.080983868328D+00
   -1.862645149231D-09 1.050081627909D-02 8.117407560349D-06 5.153602418900D+03
    0.000000000000D+00 2.980232238770D-08 3.061347167226D-01-8.940696716309D-08
    9.424393280609D-01 2.132187500000D+02-2.417047831470D+00-7.997833141853D-09
   -2.628680923683D-10 1.000000000000D+00 1.536000000000D+03 0.000000000000D+00
    2.000000000000D+00 0.000000000000D+00-1.071020960808D-08 5.300000000000D+01
   -7.080000000000D+02 4.000000000000D+00
